[{"OBJECT_NAME":"STARLINK-3697","OBJECT_ID":"2022-025G","EPOCH":"2026-03-09T04:53:08.115360","MEAN_MOTION":15.29354232,"ECCENTRICITY":0.00013821,"INCLINATION":53.157,"RA_OF_ASC_NODE":26.3329,"ARG_OF_PERICENTER":87.4855,"MEAN_ANOMALY":272.6303,"EPHEMERIS_TYPE":0,"CLASSIFICATION_TYPE":"U","NORAD_CAT_ID":51962,"ELEMENT_SET_NO":999,"REV_AT_EPOCH":22094,"BSTAR":1.860014e-6,"MEAN_MOTION_DOT":-3.02e-6,"MEAN_MOTION_DDOT":0},{"OBJECT_NAME":"OBJECT E","OBJECT_ID":"2024-092E","EPOCH":"2026-03-09T21:25:47.709120","MEAN_MOTION":15.32997986,"ECCENTRICITY":0.0008531,"INCLINATION":97.642,"RA_OF_ASC_NODE":198.2099,"ARG_OF_PERICENTER":142.2606,"MEAN_ANOMALY":217.9236,"EPHEMERIS_TYPE":0,"CLASSIFICATION_TYPE":"U","NORAD_CAT_ID":59777,"ELEMENT_SET_NO":999,"REV_AT_EPOCH":10051,"BSTAR":0.00078641119,"MEAN_MOTION_DOT":0.00025066,"MEAN_MOTION_DDOT":0}]
